NORAD_CAT_ID,OBJECT_NAME,OBJECT_TYPE,EPOCH,MEAN_MOTION,ECCENTRICITY,INCLINATION,RA_OF_ASC_NODE,ARG_OF_PERICENTER,MEAN_ANOMALY,BSTAR,MEAN_MOTION_DOT,MEAN_MOTION_DDOT,TLE_LINE0,TLE_LINE1,TLE_LINE2,SEMIMAJOR_AXIS,PERIOD,APOGEE,PERIGEE,DECAYED
52598.0,STARLINK-4019,PAYLOAD,2024-02-27 14:24:05,15.08842695,0.0001616,53.2175,10.9962,115.5538,244.5622,-3.8674e-05,-9.04e-06,0.0,0 STARLINK-4019,1 52598U 22052A   24058.60006603 -.00000904  00000-0 -38674-4 0  9997,2 52598  53.2175  10.9962 0001616 115.5538 244.5622 15.08842695 99701,6917.872,95.437,540.855,538.619,0.0
52598.0,STARLINK-4019,PAYLOAD,2024-02-28 06:17:56,15.08847697,0.000178,53.2189,8.0233,101.0331,259.0861,6.2532e-05,7.07e-06,0.0,0 STARLINK-4019,1 52598U 22052A   24059.26246153  .00000707  00000-0  62532-4 0  9995,2 52598  53.2189   8.0233 0001780 101.0331 259.0861 15.08847697 99374,6917.857,95.437,540.953,538.49,0.0
52598.0,STARLINK-4019,PAYLOAD,2024-02-28 20:36:25,15.08835115,0.0001699,53.2188,5.3472,101.2116,258.9067,3.2838e-05,2.35e-06,0.0,0 STARLINK-4019,1 52598U 22052A   24059.85863182  .00000235  00000-0  32838-4 0  9999,2 52598  53.2188   5.3472 0001699 101.2116 258.9067 15.08835115 99468,6917.895,95.438,540.936,538.585,0.0
52598.0,STARLINK-4019,PAYLOAD,2024-02-29 06:08:44,15.08840254,0.000155,53.2188,3.5641,100.9212,259.1954,8.1913e-05,1.016e-05,0.0,0 STARLINK-4019,1 52598U 22052A   24060.25606868  .00001016  00000-0  81913-4 0  9997,2 52598  53.2188   3.5641 0001550 100.9212 259.1954 15.08840254 99957,6917.88,95.438,540.817,538.672,0.0
52598.0,STARLINK-4019,PAYLOAD,2024-02-29 20:27:12,15.0883762,0.0001568,53.2189,0.8883,98.6598,261.4572,4.113e-05,3.67e-06,0.0,0 STARLINK-4019,1 52598U 22052A   24060.85223252  .00000367  00000-0  41130-4 0  9990,2 52598  53.2189   0.8883 0001568  98.6598 261.4572 15.08837620100043,6917.888,95.438,540.837,538.668,0.0
52598.0,STARLINK-4019,PAYLOAD,2024-03-01 02:48:44,15.08847022,0.0001442,53.2181,359.6997,90.134,269.9817,0.0001327,1.825e-05,0.0,0 STARLINK-4019,1 52598U 22052A   24061.11718505  .00001825  00000-0  13270-3 0  9993,2 52598  53.2181 359.6997 0001442  90.1340 269.9817 15.08847022 99655,6917.859,95.437,540.721,538.726,0.0
52598.0,STARLINK-4019,PAYLOAD,2024-03-01 12:21:03,15.08845449,0.0001493,53.2191,357.9149,87.3547,272.7616,5.3935e-05,5.71e-06,0.0,0 STARLINK-4019,1 52598U 22052A   24061.51462695  .00000571  00000-0  53935-4 0  9993,2 52598  53.2191 357.9149 0001493  87.3547 272.7616 15.08845449100146,6917.864,95.437,540.762,538.696,0.0
52598.0,STARLINK-4019,PAYLOAD,2024-03-02 02:39:32,15.08839501,0.0001537,53.2198,355.2385,93.7104,266.4064,5.0339e-05,5.13e-06,0.0,0 STARLINK-4019,1 52598U 22052A   24062.11079140  .00000513  00000-0  50339-4 0  9990,2 52598  53.2198 355.2385 0001537  93.7104 266.4064 15.08839501 99804,6917.882,95.438,540.81,538.684,0.0
52598.0,STARLINK-4019,PAYLOAD,2024-03-03 04:05:42,15.08849353,0.0001407,53.2199,350.4827,88.6102,271.5052,5.795e-05,6.35e-06,0.0,0 STARLINK-4019,1 52598U 22052A   24063.17062578  .00000635  00000-0  57950-4 0  9995,2 52598  53.2199 350.4827 0001407  88.6102 271.5052 15.08849353 99967,6917.852,95.437,540.69,538.743,0.0
52598.0,STARLINK-4019,PAYLOAD,2024-03-03 18:24:10,15.08841736,0.000138,53.2198,347.8084,96.0855,264.0295,0.00011129,1.484e-05,0.0,0 STARLINK-4019,1 52598U 22052A   24063.76678782  .00001484  00000-0  11129-3 0  9990,2 52598  53.2198 347.8084 0001380  96.0855 264.0295 15.08841736100482,6917.875,95.437,540.695,538.785,0.0
52598.0,STARLINK-4019,PAYLOAD,2024-03-04 03:56:29,15.08843631,0.0001452,53.2196,346.0216,87.8674,272.2484,9.4761e-05,1.221e-05,0.0,0 STARLINK-4019,1 52598U 22052A   24064.16422789  .00001221  00000-0  94761-4 0  9992,2 52598  53.2196 346.0216 0001452  87.8674 272.2484 15.08843631100112,6917.869,95.437,540.739,538.73,0.0
52598.0,STARLINK-4019,PAYLOAD,2024-03-04 11:53:24,15.08847276,0.0001391,53.2199,344.5326,85.3414,274.7737,0.0001414,1.964e-05,0.0,0 STARLINK-4019,1 52598U 22052A   24064.49542285  .00001964  00000-0  14140-3 0  9998,2 52598  53.2199 344.5326 0001391  85.3414 274.7737 15.08847276100596,6917.858,95.437,540.685,538.761,0.0
52598.0,STARLINK-4019,PAYLOAD,2024-03-04 23:01:09,15.08815491,0.0001662,53.219,342.4506,99.1722,260.9458,-0.00022326,-3.837e-05,0.0,0 STARLINK-4019,1 52598U 22052A   24064.95913735 -.00003837  00000-0 -22326-3 0  9999,2 52598  53.2190 342.4506 0001662  99.1722 260.9458 15.08815491100669,6917.955,95.439,540.97,538.671,0.0
52598.0,STARLINK-4019,PAYLOAD,2024-03-05 03:47:19,15.08816461,0.0001424,53.2186,341.5591,99.6389,260.4764,-0.00021582,-3.719e-05,0.0,0 STARLINK-4019,1 52598U 22052A   24065.15785937 -.00003719  00000-0 -21582-3 0  9995,2 52598  53.2186 341.5591 0001424  99.6389 260.4764 15.08816461100267,6917.952,95.439,540.802,538.832,0.0
52598.0,STARLINK-4019,PAYLOAD,2024-03-05 11:44:14,15.08830627,0.0001525,53.219,340.0752,84.6948,275.4218,-0.00011349,-2.093e-05,0.0,0 STARLINK-4019,1 52598U 22052A   24065.48905188 -.00002093  00000-0 -11349-3 0  9997,2 52598  53.2190 340.0752 0001525  84.6948 275.4218 15.08830627100318,6917.909,95.438,540.829,538.719,0.0
52598.0,STARLINK-4019,PAYLOAD,2024-03-06 03:38:04,15.08852119,0.0001821,53.2186,337.0984,94.254,265.866,0.00034347,5.184e-05,0.0,0 STARLINK-4019,1 52598U 22052A   24066.15143809  .00005184  00000-0  34347-3 0  9991,2 52598  53.2186 337.0984 0001821  94.2540 265.8660 15.08852119100415,6917.843,95.437,540.968,538.449,0.0
52598.0,STARLINK-4019,PAYLOAD,2024-03-07 00:18:05,15.08826883,0.0001361,53.2195,333.2312,91.2063,268.9085,0.00038691,5.873e-05,0.0,0 STARLINK-4019,1 52598U 22052A   24067.01256299  .00005873  00000-0  38691-3 0  9996,2 52598  53.2195 333.2312 0001361  91.2063 268.9085 15.08826883100542,6917.92,95.438,540.727,538.844,0.0
52598.0,STARLINK-4019,PAYLOAD,2024-03-08 23:59:39,15.08839398,0.0001533,53.2193,324.3163,87.4882,272.6286,2.0465e-05,3.8e-07,0.0,0 STARLINK-4019,1 52598U 22052A   24068.99976150  .00000038  00000-0  20465-4 0  9998,2 52598  53.2193 324.3163 0001533  87.4882 272.6286 15.08839398100845,6917.882,95.438,540.808,538.687,0.0
52598.0,STARLINK-4019,PAYLOAD,2024-03-09 09:31:57,15.08845535,0.0001716,53.2192,322.5309,87.9426,272.1763,5.4682e-05,5.82e-06,0.0,0 STARLINK-4019,1 52598U 22052A   24069.39719653  .00000582  00000-0  54682-4 0  9998,2 52598  53.2192 322.5309 0001716  87.9426 272.1763 15.08845535101338,6917.863,95.437,540.916,538.541,0.0
52598.0,STARLINK-4019,PAYLOAD,2024-03-09 15:53:30,15.08837709,0.0001863,53.2182,321.3413,86.5533,273.5672,8.6919e-05,1.095e-05,0.0,0 STARLINK-4019,1 52598U 22052A   24069.66216081  .00001095  00000-0  86919-4 0  9993,2 52598  53.2182 321.3413 0001863  86.5533 273.5672 15.08837709101379,6917.887,95.438,541.041,538.464,0.0
52598.0,STARLINK-4019,PAYLOAD,2024-03-10 01:25:49,15.08838349,0.0001612,53.2187,319.5586,95.7176,264.4,8.1746e-05,1.013e-05,0.0,0 STARLINK-4019,1 52598U 22052A   24070.05960029  .00001013  00000-0  81746-4 0  9999,2 52598  53.2187 319.5586 0001612  95.7176 264.4000 15.08838349101006,6917.885,95.438,540.866,538.635,0.0
52598.0,STARLINK-4019,PAYLOAD,2024-03-10 09:22:44,15.08844976,0.0001339,53.2178,318.0687,75.6056,284.5085,0.00016105,2.276e-05,0.0,0 STARLINK-4019,1 52598U 22052A   24070.39079403  .00002276  00000-0  16105-3 0  9991,2 52598  53.2178 318.0687 0001339  75.6056 284.5085 15.08844976101056,6917.865,95.437,540.656,538.804,0.0
52598.0,STARLINK-4019,PAYLOAD,2024-03-10 20:30:28,15.08832054,0.0001111,53.2174,315.9876,80.8417,279.2701,-9.8063e-05,-1.848e-05,0.0,0 STARLINK-4019,1 52598U 22052A   24070.85449120 -.00001848  00000-0 -98063-4 0  9999,2 52598  53.2174 315.9876 0001111  80.8417 279.2701 15.08832054101123,6917.905,95.438,540.538,539.001,0.0
52598.0,STARLINK-4019,PAYLOAD,2024-03-10 22:05:51,15.0883314,0.0001046,53.2172,315.6902,77.7517,282.3593,-0.00010256,-1.919e-05,0.0,0 STARLINK-4019,1 52598U 22052A   24070.92073079 -.00001919  00000-0 -10256-3 0  9999,2 52598  53.2172 315.6902 0001046  77.7517 282.3593 15.08833140101560,6917.901,95.438,540.49,539.043,0.0
52598.0,STARLINK-4019,PAYLOAD,2024-03-11 02:52:00,15.08836129,0.0001402,53.2174,314.7987,99.5207,260.5944,3.5021e-05,2.69e-06,0.0,0 STARLINK-4019,1 52598U 22052A   24071.11944492  .00000269  00000-0  35021-4 0  9990,2 52598  53.2174 314.7987 0001402  99.5207 260.5944 15.08836129101163,6917.892,95.438,540.727,538.787,0.0
52598.0,STARLINK-4019,PAYLOAD,2024-03-11 09:13:32,15.08843285,8.34e-05,53.2171,313.6089,83.2571,276.8516,-1.6075e-05,-5.44e-06,0.0,0 STARLINK-4019,1 52598U 22052A   24071.38440133 -.00000544  00000-0 -16075-4 0  9998,2 52598  53.2171 313.6089 0000834  83.2571 276.8516 15.08843285101631,6917.87,95.437,540.312,539.158,0.0
52598.0,STARLINK-4019,PAYLOAD,2024-03-12 01:07:25,15.08814241,0.0001091,53.2181,310.6353,85.5977,274.5139,-0.0002074,-3.585e-05,0.0,0 STARLINK-4019,1 52598U 22052A   24072.04682622 -.00003585  00000-0 -20740-3 0  9994,2 52598  53.2181 310.6353 0001091  85.5977 274.5139 15.08814241101304,6917.959,95.439,540.579,539.069,0.0
52598.0,STARLINK-4019,PAYLOAD,2024-03-12 15:25:54,15.0881394,0.000106,53.2185,307.9594,86.7812,273.3301,2.281e-06,-2.51e-06,0.0,0 STARLINK-4019,1 52598U 22052A   24072.64298832 -.00000251  00000-0  22810-5 0  9994,2 52598  53.2185 307.9594 0001060  86.7812 273.3301 15.08813940101393,6917.96,95.439,540.558,539.092,0.0
52598.0,STARLINK-4019,PAYLOAD,2024-03-12 21:47:25,15.08821835,0.0001307,53.2159,306.7706,123.4373,236.6744,0.00014874,2.079e-05,0.0,0 STARLINK-4019,1 52598U 22052A   24072.90793956  .00002079  00000-0  14874-3 0  9998,2 52598  53.2159 306.7706 0001307 123.4373 236.6744 15.08821835101868,6917.936,95.439,540.705,538.897,0.0
52598.0,STARLINK-4019,PAYLOAD,2024-03-13 00:58:11,15.08838651,0.0001257,53.2177,306.1753,106.8568,253.2562,0.00010973,1.459e-05,0.0,0 STARLINK-4019,1 52598U 22052A   24073.04041302  .00001459  00000-0  10973-3 0  9992,2 52598  53.2177 306.1753 0001257 106.8568 253.2562 15.08838651101451,6917.885,95.438,540.619,538.88,0.0
